STARLINK-32185          
1 60341U 24136N   24240.91667824 -.01263694  00000+0 -14878-1 0  9996
2 60341  53.1587 153.9368 0000488  89.3112 287.0207 15.63683269  5273
STARLINK-32221          
1 60342U 24136P   24240.91667824 -.00761888  00000+0 -89395-2 0  9991
2 60342  53.1573 153.9485 0000956 129.9059 240.5219 15.63282758  5220
STARLINK-32083          
1 60343U 24136Q   24240.94809611 -.00013806  00000+0 -94305-4 0  9996
2 60343  53.1571 153.4358 0000632 118.9334 241.1749 15.73154509  4089
STARLINK-32077          
1 60344U 24136R   24240.91667824 -.00764204  00000+0 -89691-2 0  9997
2 60344  53.1571 153.9325 0000942 121.5306 256.5637 15.63283365  5272
STARLINK-32075          
1 60345U 24136S   24240.91667824 -.00766743  00000+0 -90016-2 0  9991
2 60345  53.1577 153.9161 0000744 115.9396 269.8198 15.63285287  5277
STARLINK-32082          
1 60346U 24136T   24240.91667824 -.00765462  00000+0 -89848-2 0  9990
2 60346  53.1573 153.9248 0000966 110.9858 270.9409 15.63284542  5220
STARLINK-32084          
1 60347U 24136U   24240.91667824 -.00767663  00000+0 -90131-2 0  9993
2 60347  53.1571 153.9082 0000829 110.0611 279.5310 15.63285609  5277
STARLINK-32081          
1 60348U 24136V   24240.91667824 -.00766709  00000+0 -90012-2 0  9992
2 60348  53.1587 153.9010 0000709 109.3413 284.0837 15.63285431  5317
STARLINK-32181          
1 60349U 24136W   24240.91667824 -.00761970  00000+0 -89416-2 0  9994
2 60349  53.1571 153.8846 0000700 110.5098 290.5827 15.63281671  5066
STARLINK-32076          
1 60350U 24136X   24240.91667824 -.00759295  00000+0 -89081-2 0  9991
2 60350  53.1582 153.8923 0000531 104.9544 292.3056 15.63280415  5273
STARLINK-32097          
1 60351U 24136Y   24240.91667824 -.00762690  00000+0 -89512-2 0  9994
2 60351  53.1575 153.8763 0000551 131.6135 273.3119 15.63281757  5328
STRIX-4                 
1 60352U 24137A   24240.83397692  .00019681  00000+0  12774-2 0  9999
2 60352  43.0213   2.5472 0003492  43.9004 316.2118 15.07725172  3797
ELECTRON KICK STAGE R/B 
1 60353U 24137B   24240.77183107  .00060294  00000+0  19836-2 0  9999
2 60353  43.0192 358.6616 0068876 184.0019 176.0289 15.28397617  3826
STARLINK-32285          
1 60355U 24138A   24240.91667824 -.01668026  00000+0 -13765-1 0  9995
2 60355  53.1586  34.7895 0001094 334.6709 262.4479 15.72613610  4966
STARLINK-32278          
1 60356U 24138B   24240.91667824 -.01635638  00000+0 -13344-1 0  9992
2 60356  53.1585  34.5228 0000666   4.8653   0.0797 15.72824849  4969
STARLINK-32286          
1 60357U 24138C   24240.91667824 -.01607927  00000+0 -13223-1 0  9999
2 60357  53.1584  34.7809 0000955  10.3447 230.5937 15.72586826  4966
STARLINK-32287          
1 60358U 24138D   24240.91667824 -.01848846  00000+0 -15398-1 0  9992
2 60358  53.1586  34.7849 0001104  33.1271 205.9863 15.72735680  4966
STARLINK-32290          
1 60359U 24138E   24240.91667824 -.01448977  00000+0 -12028-1 0  9991
2 60359  53.1585  34.7766 0001016  36.7603 206.0480 15.72544631  4909
STARLINK-32275          
1 60360U 24138F   24240.91667824 -.01448234  00000+0 -12013-1 0  9993
2 60360  53.1584  34.7731 0000646 340.4341 264.2640 15.72563875  4965
STARLINK-32227          
1 60361U 24138G   24240.91667824 -.01580949  00000+0 -12853-1 0  9996
2 60361  53.1587  34.5130 0001836 330.0557  38.7205 15.72795456  4970
STARLINK-32256          
1 60362U 24138H   24240.91667824 -.01692590  00000+0 -13847-1 0  9997
2 60362  53.1587  34.5190 0001589 340.2534  26.6204 15.72854316  4965
STARLINK-32267          
1 60363U 24138J   24240.91667824 -.01584897  00000+0 -13024-1 0  9995
2 60363  53.1585  34.7688 0000716 341.7470 264.9598 15.72564749  4965
STARLINK-32270          
1 60364U 24138K   24240.91667824 -.01600219  00000+0 -13157-1 0  9990
2 60364  53.1585  34.7645 0000959 319.1837 289.4320 15.72577516  4842
STARLINK-32188          
1 60365U 24138L   24240.91667824 -.01675467  00000+0 -13843-1 0  9990
2 60365  53.1587  34.7599 0000503 326.7983 283.7787 15.72605213  4967
STARLINK-32230          
1 60366U 24138M   24240.91667824 -.01633509  00000+0 -13455-1 0  9991
2 60366  53.1586  34.7562 0000713  17.7018 234.7453 15.72598072  4966
STARLINK-32243          
1 60367U 24138N   24240.91667824 -.01477377  00000+0 -12293-1 0  9990
2 60367  53.1585  34.7522 0002083  16.8921 237.4524 15.72538607  4964
STARLINK-32271          
1 60368U 24138P   24240.91667824 -.01384423  00000+0 -11427-1 0  9998
2 60368  53.1585  34.7472 0001398  35.7702 220.5662 15.72534316  4963
STARLINK-32266          
1 60369U 24138Q   24240.91667824 -.01444567  00000+0 -11984-1 0  9993
2 60369  53.1585  34.7435 0001833  34.0986 224.0458 15.72540411  4968
STARLINK-32220          
1 60370U 24138R   24240.91667824 -.01475203  00000+0 -12276-1 0  9991
2 60370  53.1584  34.7393 0001403  40.9546 219.1312 15.72539821  4960
STARLINK-32263          
1 60371U 24138S   24240.91667824 -.01478798  00000+0 -12280-1 0  9999
2 60371  53.1584  34.7353 0001108  21.5162 240.3978 15.72599830  4766
STARLINK-32268          
1 60372U 24138T   24240.91667824 -.01642548  00000+0 -13470-1 0  9998
2 60372  53.1582  34.7282 0000805  74.3259 191.3543 15.72715816  4961
STARLINK-32223          
1 60373U 24138U   24240.91667824 -.01662255  00000+0 -13645-1 0  9990
2 60373  53.1584  34.7321 0000464  55.0457 208.7081 15.72732110  4905
STARLINK-32180          
1 60374U 24138V   24240.91667824 -.01566991  00000+0 -12813-1 0  9997
2 60374  53.1585  34.7244 0000899  38.7698 228.8711 15.72646430  4966
STARLINK-32281          
1 60375U 24138W   24240.91667824 -.01594984  00000+0 -13051-1 0  9996
2 60375  53.1580  34.7121 0001149  53.3599 220.0046 15.72678015  4697
STARLINK-32277          
1 60376U 24138X   24240.91667824 -.01665545  00000+0 -13672-1 0  9998
2 60376  53.1583  34.7154 0000721  61.6204 209.7977 15.72735644  4966
STARLINK-32269          
1 60377U 24138Y   24240.91667824 -.01672009  00000+0 -13728-1 0  9994
2 60377  53.1584  34.7206 0001153  42.1800 227.3198 15.72738070  4969
CYGNUS NG-21            
1 60378U 24139A   24240.72922619  .00022094  00000+0  39156-3 0  9996
2 60378  51.6394 320.8864 0006271 280.6466 218.1101 15.50162965  3460
QIANFAN-1               
1 60379U 24140A   24240.92842684  .00001045  00000+0  42544-3 0  9992
2 60379  88.9970 348.6929 0016745 145.5734 214.6549 14.26714072  3098
QIANFAN-2               
1 60380U 24140B   24240.93095287  .00001280  00000+0  53204-3 0  9990
2 60380  88.9971 348.6934 0016946 144.2061 216.0272 14.25798686  3090
QIANFAN-3               
1 60381U 24140C   24240.92905170  .00001053  00000+0  42939-3 0  9992
2 60381  88.9971 348.6932 0016937 145.0545 215.1764 14.26673548  3091
QIANFAN-4               
1 60382U 24140D   24240.92896845  .00001445  00000+0  59116-3 0  9991
2 60382  88.9970 348.6931 0016872 145.1378 215.0925 14.26682742  3097
QIANFAN-5               
1 60383U 24140E   24240.92867498  .00001440  00000+0  58902-3 0  9991
2 60383  88.9971 348.6931 0016784 145.3188 214.9103 14.26702094  3091
QIANFAN-6               
1 60384U 24140F   24240.92862918  .00001425  00000+0  58280-3 0  9996
2 60384  88.9971 348.6931 0016772 145.3581 214.8709 14.26704314  3094
QIANFAN-7               
1 60385U 24140G   24240.92854048  .00001754  00000+0  71853-3 0  9998
2 60385  88.9971 348.6931 0016834 145.6428 214.5858 14.26716822  3096
QIANFAN-8               
1 60386U 24140H   24240.92856569  .00001186  00000+0  48406-3 0  9996
2 60386  88.9970 348.6931 0016732 145.5648 214.6634 14.26707361  3097
QIANFAN-9               
1 60387U 24140J   24240.92855281  .00001243  00000+0  50760-3 0  9997
2 60387  88.9971 348.6931 0016747 145.3269 214.9020 14.26708084  3097
QIANFAN-10              
1 60388U 24140K   24240.93051278  .00001472  00000+0  60631-3 0  9995
2 60388  88.9971 348.6934 0016650 145.0011 215.2280 14.26361655  3097
QIANFAN-11              
1 60389U 24140L   24240.92849095  .00001019  00000+0  41502-3 0  9990
2 60389  88.9971 348.6930 0016754 145.4880 214.7405 14.26710971  3099
QIANFAN-12              
1 60390U 24140M   24240.92822449  .00001333  00000+0  54453-3 0  9994
2 60390  88.9970 348.6930 0016637 145.2881 214.9402 14.26731219  3096
QIANFAN-13              
1 60391U 24140N   24240.92821605  .00001511  00000+0  61793-3 0  9991
2 60391  88.9971 348.6930 0016641 145.3930 214.8351 14.26728970  3091
QIANFAN-14              
1 60392U 24140P   24240.92808476  .00001504  00000+0  61508-3 0  9999
2 60392  88.9971 348.6930 0016615 145.4827 214.7450 14.26739514  3094
QIANFAN-15              
1 60393U 24140Q   24240.92805026  .00001412  00000+0  57693-3 0  9996
2 60393  88.9971 348.6930 0016610 145.4912 214.7364 14.26742436  3096
QIANFAN-16              
1 60394U 24140R   24240.92798350  .00001499  00000+0  61268-3 0  9996
2 60394  88.9970 348.6930 0016584 145.5144 214.7129 14.26743834  3096
QIANFAN-17              
1 60395U 24140S   24240.92960270  .00000071  00000+0  23805-4 0  9990
2 60395  88.9971 348.6930 0016868 145.7758 214.4526 14.25836783  3099
QIANFAN-18              
1 60396U 24140T   24240.92785750  .00001482  00000+0  60568-3 0  9992
2 60396  88.9971 348.6931 0016542 145.6750 214.5516 14.26755648  3092
CZ-6A R/B               
1 60397U 24140U   24240.60831439  .00000362  00000+0  16305-3 0  9990
2 60397  89.0220 348.8356 0041740 165.7815 194.4560 14.19622314  2749
STARLINK-11228 [DTC]    
1 60398U 24141A   24240.93518944  .00033483  00000+0  20759-3 0  9999
2 60398  53.1567 321.4897 0001350  66.5949 293.5213 15.76747825  3928
STARLINK-11182 [DTC]    
1 60399U 24141B   24240.93030346  .00008118  00000+0  53517-4 0  9991
2 60399  53.1564 321.4569 0001397  66.8788 293.2380 15.76743865  3974
